GSAT0101 (PRN E11)      
1 37846U 11060A   24183.80130124 -.00000090  00000+0  00000+0 0  9991
2 37846  57.1303   1.1378 0003232  55.4526 304.5947  1.70475805 78921
GSAT0102 (PRN E12)      
1 37847U 11060B   24185.54607125 -.00000096  00000+0  00000+0 0  9991
2 37847  57.1304   1.0907 0002703  16.1550  20.3499  1.70475312 79089
GSAT0103 (PRN E19)      
1 38857U 12055A   24183.25389671 -.00000009  00000+0  00000+0 0  9991
2 38857  55.4124 121.2192 0004732 281.2563  78.6505  1.70473498 72806
GSAT0201 (PRN E18)      
1 40128U 14050A   24183.64020032 -.00000107  00000+0  00000+0 0  9997
2 40128  49.6448 302.4838 1611963 151.8215 217.9577  1.85519399 65043
GSAT0202 (PRN E14)      
1 40129U 14050B   24184.43743259 -.00000105  00000+0  00000+0 0  9997
2 40129  49.6610 301.5286 1610818 152.6520 216.8653  1.85520029 67225
GSAT0203 (PRN E26)      
1 40544U 15017A   24183.58053237 -.00000090  00000+0  00000+0 0  9990
2 40544  56.9251   1.0758 0001639 243.2086 116.7917  1.70475931 57003
GSAT0204 (PRN E22)      
1 40545U 15017B   24183.24818047 -.00000089  00000+0  00000+0 0  9990
2 40545  56.9309   1.1003 0001768 211.9085 148.0985  1.70475513 20049
GSAT0205 (PRN E24)      
1 40889U 15045A   24185.36272548  .00000040  00000+0  00000+0 0  9993
2 40889  55.2102 241.3232 0002679   8.8229 351.2750  1.70473882 54840
GSAT0206 (PRN E30)      
1 40890U 15045B   24181.47726911  .00000028  00000+0  00000+0 0  9997
2 40890  55.2104 241.4263 0001173 355.6843   4.3929  1.70473847 54803
GSAT0209 (PRN E09)      
1 41174U 15079A   24183.40668547 -.00000011  00000+0  00000+0 0  9998
2 41174  55.4312 120.9244 0004882 320.2879  39.6357  1.70473860 52572
GSAT0208 (PRN E08)      
1 41175U 15079B   24184.21303301 -.00000019  00000+0  00000+0 0  9991
2 41175  55.4300 120.9000 0004211 321.2220  38.7034  1.70473622 53161
GSAT0211 (PRN E02)      
1 41549U 16030A   24184.92249189  .00000040  00000+0  00000+0 0  9998
2 41549  55.3573 241.3439 0002974 304.7318  55.3315  1.70473684 50475
GSAT0210 (PRN E01)      
1 41550U 16030B   24184.04059950  .00000038  00000+0  00000+0 0  9995
2 41550  55.3575 241.3690 0003090 263.9154  96.1363  1.70473957 50459
GSAT0207 (PRN E07)      
1 41859U 16069A   24184.28688420 -.00000020  00000+0  00000+0 0  9997
2 41859  55.0963 120.8980 0005032 306.6238  53.2852  1.70473832 47217
GSAT0212 (PRN E03)      
1 41860U 16069B   24181.20826594  .00000012  00000+0  00000+0 0  9994
2 41860  55.0923 120.9797 0003942 330.9785  28.9693  1.70473945 47416
GSAT0213 (PRN E04)      
1 41861U 16069C   24185.09627534 -.00000026  00000+0  00000+0 0  9995
2 41861  55.0963 120.8786 0004770 289.7260  70.1756  1.70472694 47472
GSAT0214 (PRN E05)      
1 41862U 16069D   24183.48174830 -.00000012  00000+0  00000+0 0  9998
2 41862  55.0946 120.9169 0003966 294.0998  65.8176  1.70473999 47446
GSAT0215 (PRN E21)      
1 43055U 17079A   24183.97145759  .00000038  00000+0  00000+0 0  9995
2 43055  55.3348 241.1916 0002887 254.8620 105.1928  1.70474500 40797
GSAT0216 (PRN E25)      
1 43056U 17079B   24184.26315262  .00000039  00000+0  00000+0 0  9998
2 43056  55.3389 241.1837 0000791 195.2892 164.7965  1.70474056 40817
GSAT0217 (PRN E27)      
1 43057U 17079C   24183.89703824  .00000037  00000+0  00000+0 0  9990
2 43057  55.3327 241.1919 0006915 270.7286  89.2785  1.70473976 40799
GSAT0218 (PRN E31)      
1 43058U 17079D   24184.11709098  .00000038  00000+0  00000+0 0  9997
2 43058  55.3332 241.1837 0005927 264.8935  95.1263  1.70474259 40828
GSAT0221 (PRN E15)      
1 43564U 18060A   24185.19108048 -.00000095  00000+0  00000+0 0  9991
2 43564  57.3041   1.0364 0001936 293.2765  66.7165  1.70475848 37006
GSAT0222 (PRN E33)      
1 43565U 18060B   24183.64987574 -.00000090  00000+0  00000+0 0  9994
2 43565  57.3084   1.0798 0001687 217.3474 142.6580  1.70475542 37019
GSAT0219 (PRN E36)      
1 43566U 18060C   24184.45831486 -.00000092  00000+0  00000+0 0  9997
2 43566  57.3081   1.0599 0001342 320.5311  39.4744  1.70475824 37008
GSAT0220 (PRN E13)      
1 43567U 18060D   24182.33260254 -.00000085  00000+0  00000+0 0  9994
2 43567  57.3075   1.1170 0001388 298.3369  61.6678  1.70475414 36954
GSAT0223 (PRN E34)      
1 49809U 21116A   24184.82049181 -.00000094  00000+0  00000+0 0  9995
2 49809  57.2965   0.9443 0002084 159.2569  18.0570  1.70475739 15995
GSAT0224 (PRN E10)      
1 49810U 21116B   24185.52523921 -.00000096  00000+0  00000+0 0  9996
2 49810  57.2989   0.9238 0001786 137.0691 225.2704  1.70475820 16031
GSAT0225 (PRN E29)      
1 59598U 24079A   24162.57006490  .00000018  00000+0  00000+0 0  9991
2 59598  54.6844 121.6940 0021386 255.0217 286.2987  1.72327500   744
GSAT0227 (PRN E06)      
1 59600U 24079C   24162.27733522  .00000017  00000+0  00000+0 0  9994
2 59600  54.6843 121.7029 0021406 254.7950 104.9177  1.72327413   794
